{
  "norad_id": 66539,
  "name": "STARLINK-35697",
  "history": [
    {
      "epoch": "2026-03-28T21:44:57.192864Z",
      "apogee_km": 483.98979727285587,
      "perigee_km": 482.0269608028211,
      "latitude_deg": -2.0616343695052975e-05,
      "longitude_deg": 16.731029745595986,
      "height_km": 482.3173185854052,
      "semi_major_axis_km": 6861.145379037838,
      "eccentricity": 0.00014304,
      "inclination_deg": 42.9959,
      "raan_deg": 169.2893,
      "arg_perigee_deg": 298.431,
      "mean_anomaly_deg": 61.6397,
      "mean_motion_rev_day": 15.27593598
    },
    {
      "epoch": "2026-03-29T05:35:44.243808Z",
      "apogee_km": 483.1241120582272,
      "perigee_km": 482.8373173377531,
      "latitude_deg": -3.103427114636325e-05,
      "longitude_deg": -103.13216720860774,
      "height_km": 482.643407929285,
      "semi_major_axis_km": 6861.11771469799,
      "eccentricity": 2.09e-05,
      "inclination_deg": 42.9943,
      "raan_deg": 167.4444,
      "arg_perigee_deg": 38.6671,
      "mean_anomaly_deg": 321.4195,
      "mean_motion_rev_day": 15.27602837
    }
  ]
}